NORAD_CAT_ID,OBJECT_NAME,OBJECT_TYPE,EPOCH,MEAN_MOTION,ECCENTRICITY,INCLINATION,RA_OF_ASC_NODE,ARG_OF_PERICENTER,MEAN_ANOMALY,BSTAR,MEAN_MOTION_DOT,MEAN_MOTION_DDOT,TLE_LINE0,TLE_LINE1,TLE_LINE2,SEMIMAJOR_AXIS,PERIOD,APOGEE,PERIGEE,DECAYED
53640.0,STARLINK-4597,PAYLOAD,2024-03-01 22:33:05,15.08858191,0.0001303,53.2159,295.7543,94.8713,265.2428,0.0006001,9.28e-05,0.0,0 STARLINK-4597,1 53640U 22104BE  24061.93964748  .00009280  00000-0  60010-3 0  9999,2 53640  53.2159 295.7543 0001303  94.8713 265.2428 15.08858191 84859,6917.825,95.436,540.591,538.788,0.0
53640.0,STARLINK-4597,PAYLOAD,2024-03-02 19:13:05,15.08856457,0.0001495,53.216,291.8884,110.229,249.8863,0.00012637,1.725e-05,0.0,0 STARLINK-4597,1 53640U 22104BE  24062.80075982  .00001725  00000-0  12637-3 0  9997,2 53640  53.2160 291.8884 0001495 110.2290 249.8863 15.08856457 83966,6917.83,95.437,540.729,538.661,0.0
53640.0,STARLINK-4597,PAYLOAD,2024-03-02 20:48:28,15.08850378,0.0001661,53.2168,291.5928,113.8113,246.3054,-3.6039e-05,-8.62e-06,0.0,0 STARLINK-4597,1 53640U 22104BE  24062.86700024 -.00000862  00000-0 -36039-4 0  9991,2 53640  53.2168 291.5928 0001661 113.8113 246.3054 15.08850378 84992,6917.849,95.437,540.863,538.565,0.0
53640.0,STARLINK-4597,PAYLOAD,2024-03-03 07:56:10,15.08851689,0.0001275,53.216,289.509,80.3552,279.7584,4.9933e-05,5.07e-06,0.0,0 STARLINK-4597,1 53640U 22104BE  24063.33067938  .00000507  00000-0  49933-4 0  9995,2 53640  53.2160 289.5090 0001275  80.3552 279.7584 15.08851689 84047,6917.845,95.437,540.592,538.828,0.0
53640.0,STARLINK-4597,PAYLOAD,2024-03-03 20:39:16,15.08840986,0.0001704,53.2184,287.132,83.1913,276.9273,-0.00013514,-2.438e-05,0.0,0 STARLINK-4597,1 53640U 22104BE  24063.86060345 -.00002438  00000-0 -13514-3 0  9990,2 53640  53.2184 287.1320 0001704  83.1913 276.9273 15.08840986 85146,6917.877,95.437,540.921,538.564,0.0
53640.0,STARLINK-4597,PAYLOAD,2024-03-03 23:50:02,15.08847032,0.0001557,53.217,286.533,75.8066,284.3099,-2.386e-05,-6.68e-06,0.0,0 STARLINK-4597,1 53640U 22104BE  24063.99307975 -.00000668  00000-0 -23860-4 0  9996,2 53640  53.2170 286.5330 0001557  75.8066 284.3099 15.08847032 84145,6917.859,95.437,540.801,538.647,0.0
53640.0,STARLINK-4597,PAYLOAD,2024-03-04 07:46:57,15.08850714,0.0001481,53.2173,285.0488,93.2025,266.9136,0.00014994,2.1e-05,0.0,0 STARLINK-4597,1 53640U 22104BE  24064.32427729  .00002100  00000-0  14994-3 0  9992,2 53640  53.2173 285.0488 0001481  93.2025 266.9136 15.08850714 85219,6917.848,95.437,540.737,538.688,0.0
53640.0,STARLINK-4597,PAYLOAD,2024-03-04 20:30:05,15.08800674,0.0001616,53.2162,282.669,90.2401,269.8777,-0.00044904,-7.42e-05,0.0,0 STARLINK-4597,1 53640U 22104BE  24064.85423114 -.00007420  00000-0 -44904-3 0  9990,2 53640  53.2162 282.6690 0001616  90.2401 269.8777 15.08800674 84278,6918.001,95.44,540.984,538.748,0.0
53640.0,STARLINK-4597,PAYLOAD,2024-03-04 22:05:27,15.08820363,0.0001459,53.2171,282.3743,85.6077,274.5082,-0.00016461,-2.905e-05,0.0,0 STARLINK-4597,1 53640U 22104BE  24064.92046294 -.00002905  00000-0 -16461-3 0  9998,2 53640  53.2171 282.3743 0001459  85.6077 274.5082 15.08820363 85300,6917.94,95.439,540.815,538.796,0.0
53640.0,STARLINK-4597,PAYLOAD,2024-03-05 13:59:19,15.0883185,0.0001431,53.2157,279.3964,103.1894,256.9258,5.4589e-05,5.81e-06,0.0,0 STARLINK-4597,1 53640U 22104BE  24065.58286267  .00000581  00000-0  54589-4 0  9997,2 53640  53.2157 279.3964 0001431 103.1894 256.9258 15.08831850 85401,6917.905,95.438,540.76,538.78,0.0
53640.0,STARLINK-4597,PAYLOAD,2024-03-05 20:20:51,15.08839394,0.0001163,53.2147,278.2107,106.4548,253.6572,0.00037702,5.717e-05,0.0,0 STARLINK-4597,1 53640U 22104BE  24065.84782213  .00005717  00000-0  37702-3 0  9991,2 53640  53.2147 278.2107 0001163 106.4548 253.6572 15.08839394 84426,6917.882,95.438,540.552,538.943,0.0
53640.0,STARLINK-4597,PAYLOAD,2024-03-06 13:50:06,15.08855443,0.0001271,53.2154,274.9393,94.5876,265.5262,0.00081834,0.00012765,0.0,0 STARLINK-4597,1 53640U 22104BE  24066.57646071  .00012765  00000-0  81834-3 0  9999,2 53640  53.2154 274.9393 0001271  94.5876 265.5262 15.08855443 85551,6917.833,95.437,540.577,538.819,0.0
53640.0,STARLINK-4597,PAYLOAD,2024-03-06 20:11:38,15.08869116,0.0001328,53.2154,273.7498,90.9639,269.1505,0.00070258,0.0001092,0.0,0 STARLINK-4597,1 53640U 22104BE  24066.84141334  .00010920  00000-0  70258-3 0  9990,2 53640  53.2154 273.7498 0001328  90.9639 269.1505 15.08869116 84577,6917.791,95.436,540.575,538.738,0.0
53640.0,STARLINK-4597,PAYLOAD,2024-03-07 07:19:19,15.08870734,0.0001331,53.2149,271.6685,88.071,272.0434,0.00050699,7.797e-05,0.0,0 STARLINK-4597,1 53640U 22104BE  24067.30508530  .00007797  00000-0  50699-3 0  9992,2 53640  53.2149 271.6685 0001331  88.0710 272.0434 15.08870734 85661,6917.786,95.436,540.572,538.731,0.0
53640.0,STARLINK-4597,PAYLOAD,2024-03-08 13:31:39,15.08844238,0.0001552,53.2165,266.0166,114.1178,245.9977,0.00020984,3.054e-05,0.0,0 STARLINK-4597,1 53640U 22104BE  24068.56364661  .00003054  00000-0  20984-3 0  9992,2 53640  53.2165 266.0166 0001552 114.1178 245.9977 15.08844238 85857,6917.867,95.437,540.806,538.659,0.0
53640.0,STARLINK-4597,PAYLOAD,2024-03-08 19:53:11,15.0884689,0.0001377,53.2165,264.8294,94.0418,266.0732,0.00017772,2.542e-05,0.0,0 STARLINK-4597,1 53640U 22104BE  24068.82860643  .00002542  00000-0  17772-3 0  9994,2 53640  53.2165 264.8294 0001377  94.0418 266.0732 15.08846890 84873,6917.859,95.437,540.677,538.772,0.0
53640.0,STARLINK-4597,PAYLOAD,2024-03-09 11:47:02,15.0884702,0.0001645,53.2167,261.8571,94.0909,266.0271,0.00026005,3.854e-05,0.0,0 STARLINK-4597,1 53640U 22104BE  24069.49100613  .00003854  00000-0  26005-3 0  9998,2 53640  53.2167 261.8571 0001645  94.0909 266.0271 15.08847020 85991,6917.859,95.437,540.862,538.586,0.0
53640.0,STARLINK-4597,PAYLOAD,2024-03-09 19:43:58,15.08841905,0.000146,53.2158,260.3684,95.3518,264.764,0.00012646,1.725e-05,0.0,0 STARLINK-4597,1 53640U 22104BE  24069.82220727  .00001725  00000-0  12646-3 0  9995,2 53640  53.2158 260.3684 0001460  95.3518 264.7640 15.08841905 85020,6917.875,95.437,540.75,538.73,0.0
53640.0,STARLINK-4597,PAYLOAD,2024-03-09 21:19:21,15.08841247,0.0001336,53.2154,260.0714,95.6858,264.4286,9.8179e-05,1.275e-05,0.0,0 STARLINK-4597,1 53640U 22104BE  24069.88844726  .00001275  00000-0  98179-4 0  9998,2 53640  53.2154 260.0714 0001336  95.6858 264.4286 15.08841247 86055,6917.877,95.437,540.666,538.817,0.0
53640.0,STARLINK-4597,PAYLOAD,2024-03-10 05:16:17,15.08848145,0.0001277,53.2149,258.5839,94.4023,265.7115,0.00020487,2.975e-05,0.0,0 STARLINK-4597,1 53640U 22104BE  24070.21964373  .00002975  00000-0  20487-3 0  9992,2 53640  53.2149 258.5839 0001277  94.4023 265.7115 15.08848145 86109,6917.855,95.437,540.604,538.837,0.0
53640.0,STARLINK-4597,PAYLOAD,2024-03-10 19:34:46,15.08834106,0.0001382,53.2138,255.9084,97.0582,263.0568,-2.4832e-05,-6.83e-06,0.0,0 STARLINK-4597,1 53640U 22104BE  24070.81581065 -.00000683  00000-0 -24832-4 0  9996,2 53640  53.2138 255.9084 0001382  97.0582 263.0568 15.08834106 85177,6917.898,95.438,540.719,538.807,0.0
53640.0,STARLINK-4597,PAYLOAD,2024-03-11 05:07:04,15.08842243,0.0001149,53.2161,254.1217,83.7083,276.404,0.00012717,1.737e-05,0.0,0 STARLINK-4597,1 53640U 22104BE  24071.21324922  .00001737  00000-0  12717-3 0  9995,2 53640  53.2161 254.1217 0001149  83.7083 276.4040 15.08842243 86255,6917.874,95.437,540.533,538.944,0.0
53640.0,STARLINK-4597,PAYLOAD,2024-03-11 21:00:56,15.08842217,0.000111,53.2162,251.1482,80.3954,279.7164,0.00018082,2.591e-05,0.0,0 STARLINK-4597,1 53640U 22104BE  24071.87565027  .00002591  00000-0  18082-3 0  9990,2 53640  53.2162 251.1482 0001110  80.3954 279.7164 15.08842217 85337,6917.874,95.437,540.506,538.971,0.0
53640.0,STARLINK-4597,PAYLOAD,2024-03-12 17:40:57,15.08842166,0.0001285,53.2157,247.282,83.5026,276.6113,0.00017589,2.513e-05,0.0,0 STARLINK-4597,1 53640U 22104BE  24072.73677207  .00002513  00000-0  17589-3 0  9995,2 53640  53.2157 247.2820 0001285  83.5026 276.6113 15.08842166 86481,6917.874,95.437,540.628,538.85,0.0
53640.0,STARLINK-4597,PAYLOAD,2024-03-13 04:48:38,15.08845179,0.0001285,53.2159,245.2006,84.6035,275.5104,0.00019368,2.796e-05,0.0,0 STARLINK-4597,1 53640U 22104BE  24073.20045089  .00002796  00000-0  19368-3 0  9995,2 53640  53.2159 245.2006 0001285  84.6035 275.5104 15.08845179 85539,6917.865,95.437,540.619,538.841,0.0
53640.0,STARLINK-4597,PAYLOAD,2024-03-13 11:10:11,15.08843779,0.0001528,53.2116,244.0117,85.5075,274.6091,0.00015891,2.242e-05,0.0,0 STARLINK-4597,1 53640U 22104BE  24073.46541188  .00002242  00000-0  15891-3 0  9997,2 53640  53.2116 244.0117 0001528  85.5075 274.6091 15.08843779 86592,6917.869,95.437,540.791,538.677,0.0
53640.0,STARLINK-4597,PAYLOAD,2024-03-14 04:39:25,15.088492,0.0001518,53.2151,240.7396,89.6043,270.5123,0.00027646,4.116e-05,0.0,0 STARLINK-4597,1 53640U 22104BE  24074.19404949  .00004116  00000-0  27646-3 0  9994,2 53640  53.2151 240.7396 0001518  89.6043 270.5123 15.08849200 86701,6917.852,95.437,540.767,538.667,0.0
53640.0,STARLINK-4597,PAYLOAD,2024-03-14 11:00:58,15.08846611,0.0002059,53.2113,239.5472,106.4197,253.7021,0.00016735,2.377e-05,0.0,0 STARLINK-4597,1 53640U 22104BE  24074.45901026  .00002377  00000-0  16735-3 0  9995,2 53640  53.2113 239.5472 0002059 106.4197 253.7021 15.08846611 85723,6917.86,95.437,541.15,538.301,0.0
53640.0,STARLINK-4597,PAYLOAD,2024-03-15 20:24:05,15.08837125,0.0002508,53.2168,233.3062,86.1669,273.961,3.4981e-05,2.68e-06,0.0,0 STARLINK-4597,1 53640U 22104BE  24075.85005880  .00000268  00000-0  34981-4 0  9994,2 53640  53.2168 233.3062 0002508  86.1669 273.9610 15.08837125 85938,6917.889,95.438,541.489,538.019,0.0
53640.0,STARLINK-4597,PAYLOAD,2024-03-16 13:53:19,15.08835568,0.0001723,53.2169,230.0326,113.4648,246.6525,0.0001125,1.503e-05,0.0,0 STARLINK-4597,1 53640U 22104BE  24076.57869759  .00001503  00000-0  11250-3 0  9993,2 53640  53.2169 230.0326 0001723 113.4648 246.6525 15.08835568 87062,6917.894,95.438,540.951,538.567,0.0
